[
  "PAAQ 291011Z AUTO 25015G30KT 210V290 3/8SM BKN005 03/M01 A2984 RMK SLP034",
  "KBLV 291013Z COR 28015G30KT 270V290 2/8SM R32L/1000FT FG OVC005 01/M01 A2984 RMK A01",
  "KCLK 291012Z AUTO 08009KT 2SM -RA SCT005 OVC009 M01/M01 A2999 RMK A02",
  "KCLK 301014Z AUTO 08009KT 2SM -RA SCT005 OVC009 M01/M01 A2999 RMK A02"
]